OBJECT_NAME,OBJECT_ID,EPOCH,MEAN_MOTION,ECCENTRICITY,INCLINATION,RA_OF_ASC_NODE,ARG_OF_PERICENTER,MEAN_ANOMALY,EPHEMERIS_TYPE,CLASSIFICATION_TYPE,NORAD_CAT_ID,ELEMENT_SET_NO,REV_AT_EPOCH,BSTAR,MEAN_MOTION_DOT,MEAN_MOTION_DDOT
STARLINK-37700,2026-115E,2026-06-17T02:54:13.503168,15.49200181,.0001336,97.2831,185.1111,87.1582,272.9822,0,U,69215,999,464,.27812E-3,.15071E-3,0
STARLINK-37766,2026-115F,2026-06-17T04:00:01.998720,15.49476156,.0001611,97.2853,185.5101,83.9407,284.1525,0,U,69216,999,468,-.9399E-2,-.48589E-2,0
STARLINK-37763,2026-115G,2026-06-17T04:00:01.998720,15.49192317,.0001552,97.2843,185.4574,87.6357,152.4082,0,U,69217,999,468,-.39635E-3,-.21591E-3,0
STARLINK-37724,2026-115H,2026-06-17T04:00:01.998720,15.52125267,.0001414,97.2843,185.5525,64.1169,30.4776,0,U,69218,999,468,-.4834E-1,-.2579923E-1,0
STARLINK-37758,2026-115J,2026-06-17T04:00:01.998720,15.52644588,.0001619,97.2842,185.5607,64.5029,51.2124,0,U,69219,999,468,-.46443E-1,-.2532011E-1,0
STARLINK-37201,2026-115K,2026-06-17T04:00:01.998720,15.52232046,.000156,97.2845,185.5593,66.5320,42.0142,0,U,69220,999,468,-.48126E-1,-.2578753E-1,0
STARLINK-37728,2026-115L,2026-06-17T04:00:01.998720,15.50384856,.0000681,97.2845,185.5465,121.4284,327.5513,0,U,69221,999,468,-.32698E-1,-.1662298E-1,0
STARLINK-37760,2026-115M,2026-06-17T04:00:01.998720,15.53740134,.0001533,97.2839,185.5688,57.2286,78.3146,0,U,69222,999,468,-.45861E-1,-.2593752E-1,0
STARLINK-37759,2026-115N,2026-06-17T04:00:01.998720,15.49195651,.0001159,97.2841,185.4617,109.6811,138.8995,0,U,69223,999,468,-.2795E-3,-.15266E-3,0
STARLINK-37725,2026-115P,2026-06-17T04:00:01.998720,15.49183464,.0001272,97.2841,185.4665,92.0823,169.0685,0,U,69224,999,468,-.50613E-3,-.27516E-3,0
STARLINK-37770,2026-115Q,2026-06-17T04:00:01.998720,15.54816110,.0001733,97.2838,185.5821,72.1379,93.2286,0,U,69225,999,468,-.43946E-1,-.2586663E-1,0
STARLINK-37736,2026-115R,2026-06-17T04:00:01.998720,15.53811187,.0001493,97.2841,185.5686,60.7341,76.1817,0,U,69226,999,468,-.44788E-1,-.2545789E-1,0
STARLINK-37737,2026-115S,2026-06-17T04:00:01.998720,15.55572422,.0001969,97.2849,185.5926,76.4253,114.0195,0,U,69227,999,470,-.4172E-1,-.2482619E-1,0
STARLINK-37618,2026-115T,2026-06-17T04:00:01.998720,15.49179525,.00017,97.2840,185.4595,87.9075,154.1426,0,U,69228,999,468,-.44875E-5,-.334E-5,0
STARLINK-37679,2026-115U,2026-06-17T04:00:01.998720,15.49192471,.0001052,97.2839,185.4638,97.9023,158.5193,0,U,69229,999,468,-.43523E-3,-.23692E-3,0
STARLINK-37746,2026-115V,2026-06-17T04:00:01.998720,15.49185928,.0000808,97.2845,185.4458,129.1747,81.7202,0,U,69230,999,468,-.30883E-3,-.16848E-3,0
STARLINK-37557,2026-115W,2026-06-17T03:41:26.928096,15.49214626,.000154,97.2836,185.3729,97.3279,262.8147,0,U,69231,999,466,.55265E-3,.30109E-3,0
STARLINK-37745,2026-115X,2026-06-17T04:00:01.998720,15.57043219,.0001957,97.2841,185.6166,91.0301,155.4789,0,U,69232,999,468,-.4029E-1,-.2526034E-1,0
STARLINK-37739,2026-115Y,2026-06-17T04:00:01.998720,15.49196878,.0001292,97.2843,185.4411,59.4149,140.6494,0,U,69233,999,468,-.28187E-3,-.15395E-3,0
STARLINK-37755,2026-115Z,2026-06-17T03:09:50.753952,15.75205119,.0001005,97.2826,185.5560,79.7787,280.3591,0,U,69234,999,467,.6277E-3,.94599E-3,0
TJS-24,2026-116A,2026-06-16T22:28:44.121792,1.00272946,.0000262,0.0168,72.7136,322.2296,297.7134,0,U,69235,999,22,0,-.235E-5,0
STARLINK-37665,2026-117A,2026-06-17T02:51:27.304128,15.82052665,.0001014,53.1573,243.9647,106.2352,253.8783,0,U,69238,999,296,.11777E-2,.252071E-2,0
STARLINK-37558,2026-117B,2026-06-17T02:50:05.078112,15.82063961,.00011,53.1572,243.9581,96.5431,263.5718,0,U,69239,999,296,.10473E-2,.22346E-2,0
STARLINK-37680,2026-117C,2026-06-17T02:48:00.619776,15.82065047,.0000786,53.1576,243.9481,130.2015,229.9077,0,U,69240,999,296,.1118E-2,.239036E-2,0
STARLINK-37742,2026-117D,2026-06-17T02:45:26.498592,15.82066471,.0000742,53.1575,243.9371,111.9299,248.1803,0,U,69241,999,296,.11166E-2,.238744E-2,0
STARLINK-37718,2026-117E,2026-06-17T02:43:40.232640,15.82037659,.0001044,53.1576,243.9276,71.1559,288.9578,0,U,69242,999,296,.77308E-3,.163408E-2,0
STARLINK-37735,2026-117F,2026-06-17T02:43:30.946368,15.82036867,.000099,53.1579,243.9268,60.6504,299.4618,0,U,69243,999,296,.85596E-3,.181375E-2,0
STARLINK-37757,2026-117G,2026-06-17T02:40:04.026144,15.82037553,.0001016,53.1576,243.9110,72.5995,287.5140,0,U,69244,999,296,.84198E-3,.178344E-2,0
STARLINK-37767,2026-117H,2026-06-17T04:04:53.986656,15.82054364,.0001169,53.1572,243.5639,50.9206,309.1921,0,U,69245,999,297,.1107E-2,.236491E-2,0
