STARLINK-37700          
1 69215U 26115E   26168.12098962  .00015071  00000+0  27812-3 0  9994
2 69215  97.2831 185.1111 0001336  87.1582 272.9822 15.49200181  4644
STARLINK-37766          
1 69216U 26115F   26168.16668980 -.00485890  00000+0 -93990-2 0  9993
2 69216  97.2853 185.5101 0001611  83.9407 284.1525 15.49476156  4684
STARLINK-37763          
1 69217U 26115G   26168.16668980 -.00021591  00000+0 -39635-3 0  9995
2 69217  97.2843 185.4574 0001552  87.6357 152.4082 15.49192317  4685
STARLINK-37724          
1 69218U 26115H   26168.16668980 -.02579923  00000+0 -48340-1 0  9996
2 69218  97.2843 185.5525 0001414  64.1169  30.4776 15.52125267  4680
STARLINK-37758          
1 69219U 26115J   26168.16668980 -.02532011  00000+0 -46443-1 0  9996
2 69219  97.2842 185.5607 0001619  64.5029  51.2124 15.52644588  4687
STARLINK-37201          
1 69220U 26115K   26168.16668980 -.02578753  00000+0 -48126-1 0  9991
2 69220  97.2845 185.5593 0001560  66.5320  42.0142 15.52232046  4687
STARLINK-37728          
1 69221U 26115L   26168.16668980 -.01662298  00000+0 -32698-1 0  9996
2 69221  97.2845 185.5465 0000681 121.4284 327.5513 15.50384856  4687
STARLINK-37760          
1 69222U 26115M   26168.16668980 -.02593752  00000+0 -45861-1 0  9992
2 69222  97.2839 185.5688 0001533  57.2286  78.3146 15.53740134  4684
STARLINK-37759          
1 69223U 26115N   26168.16668980 -.00015266  00000+0 -27950-3 0  9991
2 69223  97.2841 185.4617 0001159 109.6811 138.8995 15.49195651  4686
STARLINK-37725          
1 69224U 26115P   26168.16668980 -.00027516  00000+0 -50613-3 0  9995
2 69224  97.2841 185.4665 0001272  92.0823 169.0685 15.49183464  4685
STARLINK-37770          
1 69225U 26115Q   26168.16668980 -.02586663  00000+0 -43946-1 0  9990
2 69225  97.2838 185.5821 0001733  72.1379  93.2286 15.54816110  4686
STARLINK-37736          
1 69226U 26115R   26168.16668980 -.02545789  00000+0 -44788-1 0  9990
2 69226  97.2841 185.5686 0001493  60.7341  76.1817 15.53811187  4683
STARLINK-37737          
1 69227U 26115S   26168.16668980 -.02482619  00000+0 -41720-1 0  9996
2 69227  97.2849 185.5926 0001969  76.4253 114.0195 15.55572422  4705
STARLINK-37618          
1 69228U 26115T   26168.16668980 -.00000334  00000+0 -44875-5 0  9993
2 69228  97.2840 185.4595 0001700  87.9075 154.1426 15.49179525  4689
STARLINK-37679          
1 69229U 26115U   26168.16668980 -.00023692  00000+0 -43523-3 0  9993
2 69229  97.2839 185.4638 0001052  97.9023 158.5193 15.49192471  4684
STARLINK-37746          
1 69230U 26115V   26168.16668980 -.00016848  00000+0 -30883-3 0  9995
2 69230  97.2845 185.4458 0000808 129.1747  81.7202 15.49185928  4689
STARLINK-37557          
1 69231U 26115W   26168.15378389  .00030109  00000+0  55265-3 0  9991
2 69231  97.2836 185.3729 0001540  97.3279 262.8147 15.49214626  4666
STARLINK-37745          
1 69232U 26115X   26168.16668980 -.02526034  00000+0 -40290-1 0  9993
2 69232  97.2841 185.6166 0001957  91.0301 155.4789 15.57043219  4688
STARLINK-37739          
1 69233U 26115Y   26168.16668980 -.00015395  00000+0 -28187-3 0  9998
2 69233  97.2843 185.4411 0001292  59.4149 140.6494 15.49196878  4682
STARLINK-37755          
1 69234U 26115Z   26168.13183743  .00094599  00000+0  62770-3 0  9992
2 69234  97.2826 185.5560 0001005  79.7787 280.3591 15.75205119  4672
TJS-24                  
1 69235U 26116A   26167.93662178 -.00000235  00000+0  00000+0 0  9994
2 69235   0.0168  72.7136 0000262 322.2296 297.7134  1.00272946   222
STARLINK-37665          
1 69238U 26117A   26168.11906602  .00252071  00000+0  11777-2 0  9994
2 69238  53.1573 243.9647 0001014 106.2352 253.8783 15.82052665  2967
STARLINK-37558          
1 69239U 26117B   26168.11811433  .00223460  00000+0  10473-2 0  9994
2 69239  53.1572 243.9581 0001100  96.5431 263.5718 15.82063961  2966
STARLINK-37680          
1 69240U 26117C   26168.11667384  .00239036  00000+0  11180-2 0  9992
2 69240  53.1576 243.9481 0000786 130.2015 229.9077 15.82065047  2965
STARLINK-37742          
1 69241U 26117D   26168.11489003  .00238744  00000+0  11166-2 0  9992
2 69241  53.1575 243.9371 0000742 111.9299 248.1803 15.82066471  2967
STARLINK-37718          
1 69242U 26117E   26168.11366010  .00163408  00000+0  77308-3 0  9990
2 69242  53.1576 243.9276 0001044  71.1559 288.9578 15.82037659  2962
STARLINK-37735          
1 69243U 26117F   26168.11355262  .00181375  00000+0  85596-3 0  9999
2 69243  53.1579 243.9268 0000990  60.6504 299.4618 15.82036867  2961
STARLINK-37757          
1 69244U 26117G   26168.11115771  .00178344  00000+0  84198-3 0  9998
2 69244  53.1576 243.9110 0001016  72.5995 287.5140 15.82037553  2962
STARLINK-37767          
1 69245U 26117H   26168.17006929  .00236491  00000+0  11070-2 0  9995
2 69245  53.1572 243.5639 0001169  50.9206 309.1921 15.82054364  2973
